STARLINK-4075           
1 52670U 22053Q   26077.28037029  .00001119  00000+0  88386-4 0  9993
2 52670  53.2164 115.6246 0001218  74.5719 285.5408 15.08834428212340
STARLINK-4071           
1 52671U 22053R   26076.39347176  .00000116  00000+0  25352-4 0  9992
2 52671  53.2172 119.5362 0001295  84.8557 275.2583 15.08841123212206
STARLINK-4073           
1 52672U 22053S   26077.26563701 -.00000559  00000+0 -17021-4 0  9991
2 52672  53.2169 115.6207 0001311  79.2688 280.8452 15.08839851212336
STARLINK-3976           
1 52673U 22053T   26077.31347905 -.00000656  00000+0 -23110-4 0  9998
2 52673  53.2167 115.4045 0001230  96.7441 263.3691 15.08835410212343
STARLINK-3936           
1 52674U 22053U   26077.26105460  .00061643  00000+0  37936-2 0  9991
2 52674  53.2168 115.6336 0001405  63.3482 296.7654 15.09451505212348
STARLINK-3934           
1 52675U 22053V   26077.31071648  .00000241  00000+0  33226-4 0  9995
2 52675  53.2162 105.4202 0001180  79.0510 281.0615 15.08838996212478
STARLINK-4006           
1 52676U 22053W   26076.52226998  .00000578  00000+0  54386-4 0  9991
2 52676  53.2168 118.9570 0001291  89.0933 271.0208 15.08841837212223
STARLINK-4074           
1 52678U 22053Y   26076.79185048  .00000501  00000+0  49555-4 0  9990
2 52678  53.2161 107.8552 0001256  91.4276 268.6860 15.08835473212396
STARLINK-4031           
1 52679U 22053Z   26077.29231816 -.00001073  00000+0 -49354-4 0  9996
2 52679  53.2169 105.5013 0001537  90.1264 269.9905 15.08833739212439
STARLINK-3774           
1 52680U 22053AA  26077.28494732  .00000989  00000+0  80214-4 0  9998
2 52680  53.2165 105.3010 0001161  94.3722 265.7402 15.08835618212456
STARLINK-4068           
1 52681U 22053AB  26077.28863437  .00000177  00000+0  29217-4 0  9996
2 52681  53.2165 105.5171 0001321  89.0022 271.1122 15.08838353212436
STARLINK-4017           
1 52682U 22053AC  26077.29967461  .00000845  00000+0  71195-4 0  9994
2 52682  53.2171 105.4675 0001101  81.0661 279.0456 15.08836222212451
STARLINK-4014           
1 52684U 22053AE  26077.29599938  .00000606  00000+0  56131-4 0  9994
2 52684  53.2168 105.4857 0001096  81.8236 278.2880 15.08834934212438
STARLINK-4029           
1 52685U 22053AF  26077.27391715 -.00000195  00000+0  58456-5 0  9993
2 52685  53.2172 105.5835 0001283  96.3924 263.7214 15.08843659212416
STARLINK-4005           
1 52686U 22053AG  26077.31170899  .00000422  00000+0  44630-4 0  9997
2 52686  53.2165 105.6948 0001316  86.7894 273.3248 15.08834692212423
STARLINK-3981           
1 52687U 22053AH  26077.27023551  .00001189  00000+0  92758-4 0  9990
2 52687  53.2163 105.6014 0001290  87.8855 272.2285 15.08840329212418
