[{"OBJECT_NAME":"STARLINK-4075","OBJECT_ID":"2022-053Q","EPOCH":"2026-03-18T06:43:43.993056","MEAN_MOTION":15.08834428,"ECCENTRICITY":0.00012181,"INCLINATION":53.2164,"RA_OF_ASC_NODE":115.6246,"ARG_OF_PERICENTER":74.5719,"MEAN_ANOMALY":285.5408,"EPHEMERIS_TYPE":0,"CLASSIFICATION_TYPE":"U","NORAD_CAT_ID":52670,"ELEMENT_SET_NO":999,"REV_AT_EPOCH":21234,"BSTAR":8.838595e-5,"MEAN_MOTION_DOT":1.119e-5,"MEAN_MOTION_DDOT":0},{"OBJECT_NAME":"STARLINK-4071","OBJECT_ID":"2022-053R","EPOCH":"2026-03-17T09:26:35.960064","MEAN_MOTION":15.08841123,"ECCENTRICITY":0.00012954,"INCLINATION":53.2172,"RA_OF_ASC_NODE":119.5362,"ARG_OF_PERICENTER":84.8557,"MEAN_ANOMALY":275.2583,"EPHEMERIS_TYPE":0,"CLASSIFICATION_TYPE":"U","NORAD_CAT_ID":52671,"ELEMENT_SET_NO":999,"REV_AT_EPOCH":21220,"BSTAR":2.535166e-5,"MEAN_MOTION_DOT":1.16e-6,"MEAN_MOTION_DDOT":0},{"OBJECT_NAME":"STARLINK-4073","OBJECT_ID":"2022-053S","EPOCH":"2026-03-18T06:22:31.037664","MEAN_MOTION":15.08839851,"ECCENTRICITY":0.00013119,"INCLINATION":53.2169,"RA_OF_ASC_NODE":115.6207,"ARG_OF_PERICENTER":79.2688,"MEAN_ANOMALY":280.8452,"EPHEMERIS_TYPE":0,"CLASSIFICATION_TYPE":"U","NORAD_CAT_ID":52672,"ELEMENT_SET_NO":999,"REV_AT_EPOCH":21233,"BSTAR":-1.7020737e-5,"MEAN_MOTION_DOT":-5.59e-6,"MEAN_MOTION_DDOT":0},{"OBJECT_NAME":"STARLINK-3976","OBJECT_ID":"2022-053T","EPOCH":"2026-03-18T07:31:24.589920","MEAN_MOTION":15.0883541,"ECCENTRICITY":0.000123,"INCLINATION":53.2167,"RA_OF_ASC_NODE":115.4045,"ARG_OF_PERICENTER":96.7441,"MEAN_ANOMALY":263.3691,"EPHEMERIS_TYPE":0,"CLASSIFICATION_TYPE":"U","NORAD_CAT_ID":52673,"ELEMENT_SET_NO":999,"REV_AT_EPOCH":21234,"BSTAR":-2.310999e-5,"MEAN_MOTION_DOT":-6.56e-6,"MEAN_MOTION_DDOT":0},{"OBJECT_NAME":"STARLINK-3936","OBJECT_ID":"2022-053U","EPOCH":"2026-03-18T06:15:55.117440","MEAN_MOTION":15.09451505,"ECCENTRICITY":0.00014051,"INCLINATION":53.2168,"RA_OF_ASC_NODE":115.6336,"ARG_OF_PERICENTER":63.3482,"MEAN_ANOMALY":296.7654,"EPHEMERIS_TYPE":0,"CLASSIFICATION_TYPE":"U","NORAD_CAT_ID":52674,"ELEMENT_SET_NO":999,"REV_AT_EPOCH":21234,"BSTAR":0.0037936049,"MEAN_MOTION_DOT":0.00061643,"MEAN_MOTION_DDOT":0},{"OBJECT_NAME":"STARLINK-3934","OBJECT_ID":"2022-053V","EPOCH":"2026-03-18T07:27:25.903872","MEAN_MOTION":15.08838996,"ECCENTRICITY":0.00011809,"INCLINATION":53.2162,"RA_OF_ASC_NODE":105.4202,"ARG_OF_PERICENTER":79.051,"MEAN_ANOMALY":281.0615,"EPHEMERIS_TYPE":0,"CLASSIFICATION_TYPE":"U","NORAD_CAT_ID":52675,"ELEMENT_SET_NO":999,"REV_AT_EPOCH":21247,"BSTAR":3.3226343e-5,"MEAN_MOTION_DOT":2.41e-6,"MEAN_MOTION_DDOT":0},{"OBJECT_NAME":"STARLINK-4006","OBJECT_ID":"2022-053W","EPOCH":"2026-03-17T12:32:04.126272","MEAN_MOTION":15.08841837,"ECCENTRICITY":0.00012914,"INCLINATION":53.2168,"RA_OF_ASC_NODE":118.957,"ARG_OF_PERICENTER":89.0933,"MEAN_ANOMALY":271.0208,"EPHEMERIS_TYPE":0,"CLASSIFICATION_TYPE":"U","NORAD_CAT_ID":52676,"ELEMENT_SET_NO":999,"REV_AT_EPOCH":21222,"BSTAR":5.4385947e-5,"MEAN_MOTION_DOT":5.78e-6,"MEAN_MOTION_DDOT":0},{"OBJECT_NAME":"STARLINK-4074","OBJECT_ID":"2022-053Y","EPOCH":"2026-03-17T19:00:15.881472","MEAN_MOTION":15.08835473,"ECCENTRICITY":0.00012563,"INCLINATION":53.2161,"RA_OF_ASC_NODE":107.8552,"ARG_OF_PERICENTER":91.4276,"MEAN_ANOMALY":268.686,"EPHEMERIS_TYPE":0,"CLASSIFICATION_TYPE":"U","NORAD_CAT_ID":52678,"ELEMENT_SET_NO":999,"REV_AT_EPOCH":21239,"BSTAR":4.9555373e-5,"MEAN_MOTION_DOT":5.01e-6,"MEAN_MOTION_DDOT":0},{"OBJECT_NAME":"STARLINK-4031","OBJECT_ID":"2022-053Z","EPOCH":"2026-03-18T07:00:56.289024","MEAN_MOTION":15.08833739,"ECCENTRICITY":0.00015378,"INCLINATION":53.2169,"RA_OF_ASC_NODE":105.5013,"ARG_OF_PERICENTER":90.1264,"MEAN_ANOMALY":269.9905,"EPHEMERIS_TYPE":0,"CLASSIFICATION_TYPE":"U","NORAD_CAT_ID":52679,"ELEMENT_SET_NO":999,"REV_AT_EPOCH":21243,"BSTAR":-4.9353833e-5,"MEAN_MOTION_DOT":-1.073e-5,"MEAN_MOTION_DDOT":0},{"OBJECT_NAME":"STARLINK-3774","OBJECT_ID":"2022-053AA","EPOCH":"2026-03-18T06:50:19.448448","MEAN_MOTION":15.08835618,"ECCENTRICITY":0.00011611,"INCLINATION":53.2165,"RA_OF_ASC_NODE":105.301,"ARG_OF_PERICENTER":94.3722,"MEAN_ANOMALY":265.7402,"EPHEMERIS_TYPE":0,"CLASSIFICATION_TYPE":"U","NORAD_CAT_ID":52680,"ELEMENT_SET_NO":999,"REV_AT_EPOCH":21245,"BSTAR":8.0214366e-5,"MEAN_MOTION_DOT":9.89e-6,"MEAN_MOTION_DDOT":0},{"OBJECT_NAME":"STARLINK-4068","OBJECT_ID":"2022-053AB","EPOCH":"2026-03-18T06:55:38.009568","MEAN_MOTION":15.08838353,"ECCENTRICITY":0.00013212,"INCLINATION":53.2165,"RA_OF_ASC_NODE":105.5171,"ARG_OF_PERICENTER":89.0022,"MEAN_ANOMALY":271.1122,"EPHEMERIS_TYPE":0,"CLASSIFICATION_TYPE":"U","NORAD_CAT_ID":52681,"ELEMENT_SET_NO":999,"REV_AT_EPOCH":21243,"BSTAR":2.9216615e-5,"MEAN_MOTION_DOT":1.77e-6,"MEAN_MOTION_DDOT":0},{"OBJECT_NAME":"STARLINK-4017","OBJECT_ID":"2022-053AC","EPOCH":"2026-03-18T07:11:31.886304","MEAN_MOTION":15.08836222,"ECCENTRICITY":0.00011014,"INCLINATION":53.2171,"RA_OF_ASC_NODE":105.4675,"ARG_OF_PERICENTER":81.0661,"MEAN_ANOMALY":279.0456,"EPHEMERIS_TYPE":0,"CLASSIFICATION_TYPE":"U","NORAD_CAT_ID":52682,"ELEMENT_SET_NO":999,"REV_AT_EPOCH":21245,"BSTAR":7.1194897e-5,"MEAN_MOTION_DOT":8.45e-6,"MEAN_MOTION_DDOT":0},{"OBJECT_NAME":"STARLINK-4014","OBJECT_ID":"2022-053AE","EPOCH":"2026-03-18T07:06:14.346432","MEAN_MOTION":15.08834934,"ECCENTRICITY":0.00010963,"INCLINATION":53.2168,"RA_OF_ASC_NODE":105.4857,"ARG_OF_PERICENTER":81.8236,"MEAN_ANOMALY":278.288,"EPHEMERIS_TYPE":0,"CLASSIFICATION_TYPE":"U","NORAD_CAT_ID":52684,"ELEMENT_SET_NO":999,"REV_AT_EPOCH":21243,"BSTAR":5.6130603e-5,"MEAN_MOTION_DOT":6.06e-6,"MEAN_MOTION_DDOT":0},{"OBJECT_NAME":"STARLINK-4029","OBJECT_ID":"2022-053AF","EPOCH":"2026-03-18T06:34:26.441760","MEAN_MOTION":15.08843659,"ECCENTRICITY":0.00012838,"INCLINATION":53.2172,"RA_OF_ASC_NODE":105.5835,"ARG_OF_PERICENTER":96.3924,"MEAN_ANOMALY":263.7214,"EPHEMERIS_TYPE":0,"CLASSIFICATION_TYPE":"U","NORAD_CAT_ID":52685,"ELEMENT_SET_NO":999,"REV_AT_EPOCH":21241,"BSTAR":5.845551e-6,"MEAN_MOTION_DOT":-1.95e-6,"MEAN_MOTION_DDOT":0},{"OBJECT_NAME":"STARLINK-4005","OBJECT_ID":"2022-053AG","EPOCH":"2026-03-18T07:28:51.656736","MEAN_MOTION":15.08834692,"ECCENTRICITY":0.00013165,"INCLINATION":53.2165,"RA_OF_ASC_NODE":105.6948,"ARG_OF_PERICENTER":86.7894,"MEAN_ANOMALY":273.3248,"EPHEMERIS_TYPE":0,"CLASSIFICATION_TYPE":"U","NORAD_CAT_ID":52686,"ELEMENT_SET_NO":999,"REV_AT_EPOCH":21242,"BSTAR":4.4630278e-5,"MEAN_MOTION_DOT":4.22e-6,"MEAN_MOTION_DDOT":0},{"OBJECT_NAME":"STARLINK-3981","OBJECT_ID":"2022-053AH","EPOCH":"2026-03-18T06:29:08.348064","MEAN_MOTION":15.08840329,"ECCENTRICITY":0.00012901,"INCLINATION":53.2163,"RA_OF_ASC_NODE":105.6014,"ARG_OF_PERICENTER":87.8855,"MEAN_ANOMALY":272.2285,"EPHEMERIS_TYPE":0,"CLASSIFICATION_TYPE":"U","NORAD_CAT_ID":52687,"ELEMENT_SET_NO":999,"REV_AT_EPOCH":21241,"BSTAR":9.2758346e-5,"MEAN_MOTION_DOT":1.189e-5,"MEAN_MOTION_DDOT":0}]
